{"type": "FeatureCollection", "features": [ {"type": "Feature", "properties": {"norad_id": 31361, "name": "FENGYUN 1C DEB", "group": "fengyun-1c-debris", "lat": 66.84475978368765, "lon": -47.83990566906006, "alt_km": 797.4976225358005, "timestamp": "2025-12-23T20:42:37.357996+00:00", "meta": {"OBJECT_NAME": "FENGYUN 1C DEB", "OBJECT_ID": "1999-025BRR", "EPOCH": "2025-12-20T09:23:48.416640", "MEAN_MOTION": 14.17749362, "ECCENTRICITY": 0.00459663, "INCLINATION": 98.5514, "RA_OF_ASC_NODE": 329.4165, "ARG_OF_PERICENTER": 49.0881, "MEAN_ANOMALY": 311.4261, "EPHEMERIS_TYPE": 0, "CLASSIFICATION_TYPE": "U", "NORAD_CAT_ID": 31361, "ELEMENT_SET_NO": 999, "REV_AT_EPOCH": 96672, "BSTAR": 0.0001051526, "MEAN_MOTION_DOT": 1.75e-06, "MEAN_MOTION_DDOT": 0}, "tle": {"line1": "1 31361U 99025BRR 25354.39153260  .00000175  00000+0  10515-3 0  9994", "line2": "2 31361  98.5514 329.4165 0045966  49.0881 311.4261 14.17749362966720"}}, "geometry": {"type": "Point", "coordinates": [-47.83990566906006, 66.84475978368765]}}, {"type": "Feature", "properties": {"norad_id": 31362, "name": "FENGYUN 1C DEB", "group": "fengyun-1c-debris", "lat": 30.544305834805417, "lon": -13.236949854284385, "alt_km": 821.0622610971686, "timestamp": "2025-12-23T20:42:37.358007+00:00", "meta": {"OBJECT_NAME": "FENGYUN 1C DEB", "OBJECT_ID": "1999-025BRS", "EPOCH": "2025-12-23T05:19:02.502336", "MEAN_MOTION": 14.17385754, "ECCENTRICITY": 0.00192045, "INCLINATION": 98.653, "RA_OF_ASC_NODE": 351.2941, "ARG_OF_PERICENTER": 67.0614, "MEAN_ANOMALY": 293.2586, "EPHEMERIS_TYPE": 0, "CLASSIFICATION_TYPE": "U", "NORAD_CAT_ID": 31362, "ELEMENT_SET_NO": 999, "REV_AT_EPOCH": 96724, "BSTAR": 0.00015115941, "MEAN_MOTION_DOT": 2.64e-06, "MEAN_MOTION_DDOT": 0}, "tle": {"line1": "1 31362U 99025BRS 25357.22155674  .00000264  00000+0  15116-3 0  9992", "line2": "2 31362  98.6530 351.2941 0019204  67.0614 293.2586 14.17385754967241"}}, "geometry": {"type": "Point", "coordinates": [-13.236949854284385, 30.544305834805417]}}, {"type": "Feature", "properties": {"norad_id": 31364, "name": "FENGYUN 1C DEB", "group": "fengyun-1c-debris", "lat": -54.0637299835022, "lon": 130.93547170412643, "alt_km": 916.4667169125114, "timestamp": "2025-12-23T20:42:37.358017+00:00", "meta": {"OBJECT_NAME": "FENGYUN 1C DEB", "OBJECT_ID": "1999-025BRU", "EPOCH": "2025-12-22T14:25:19.608960", "MEAN_MOTION": 14.14754235, "ECCENTRICITY": 0.00926631, "INCLINATION": 99.2629, "RA_OF_ASC_NODE": 116.6151, "ARG_OF_PERICENTER": 121.4714, "MEAN_ANOMALY": 239.5556, "EPHEMERIS_TYPE": 0, "CLASSIFICATION_TYPE": "U", "NORAD_CAT_ID": 31364, "ELEMENT_SET_NO": 999, "REV_AT_EPOCH": 95016, "BSTAR": 0.0025709802, "MEAN_MOTION_DOT": 5.119e-05, "MEAN_MOTION_DDOT": 0}, "tle": {"line1": "1 31364U 99025BRU 25356.60092140  .00005119  00000+0  25710-2 0  9997", "line2": "2 31364  99.2629 116.6151 0092663 121.4714 239.5556 14.14754235950165"}}, "geometry": {"type": "Point", "coordinates": [130.93547170412643, -54.0637299835022]}}, {"type": "Feature", "properties": {"norad_id": 31365, "name": "FENGYUN 1C DEB", "group": "fengyun-1c-debris", "lat": -76.45220491614589, "lon": -136.221177053068, "alt_km": 749.7613389273083, "timestamp": "2025-12-23T20:42:37.358027+00:00", "meta": {"OBJECT_NAME": "FENGYUN 1C DEB", "OBJECT_ID": "1999-025BRV", "EPOCH": "2025-12-23T04:31:26.565024", "MEAN_MOTION": 14.41970877, "ECCENTRICITY": 0.00428206, "INCLINATION": 98.6739, "RA_OF_ASC_NODE": 82.4043, "ARG_OF_PERICENTER": 189.4582, "MEAN_ANOMALY": 170.5805, "EPHEMERIS_TYPE": 0, "CLASSIFICATION_TYPE": "U", "NORAD_CAT_ID": 31365, "ELEMENT_SET_NO": 999, "REV_AT_EPOCH": 96779, "BSTAR": 0.0021171214, "MEAN_MOTION_DOT": 6.978e-05, "MEAN_MOTION_DDOT": 0}, "tle": {"line1": "1 31365U 99025BRV 25357.18850191  .00006978  00000+0  21171-2 0  9991", "line2": "2 31365  98.6739  82.4043 0042820 189.4582 170.5805 14.41970877967798"}}, "geometry": {"type": "Point", "coordinates": [-136.221177053068, -76.45220491614589]}}, {"type": "Feature", "properties": {"norad_id": 31367, "name": "FENGYUN 1C DEB", "group": "fengyun-1c-debris", "lat": 25.38468680977939, "lon": -111.6863151508057, "alt_km": 680.8877109509012, "timestamp": "2025-12-23T20:42:37.358038+00:00", "meta": {"OBJECT_NAME": "FENGYUN 1C DEB", "OBJECT_ID": "1999-025BRX", "EPOCH": "2025-12-21T04:35:30.442848", "MEAN_MOTION": 14.47523379, "ECCENTRICITY": 0.00989793, "INCLINATION": 98.7459, "RA_OF_ASC_NODE": 249.7415, "ARG_OF_PERICENTER": 351.0863, "MEAN_ANOMALY": 159.9822, "EPHEMERIS_TYPE": 0, "CLASSIFICATION_TYPE": "U", "NORAD_CAT_ID": 31367, "ELEMENT_SET_NO": 999, "REV_AT_EPOCH": 98588, "BSTAR": 0.00041696927, "MEAN_MOTION_DOT": 1.578e-05, "MEAN_MOTION_DDOT": 0}, "tle": {"line1": "1 31367U 99025BRX 25355.19132457  .00001578  00000+0  41697-3 0  9997", "line2": "2 31367  98.7459 249.7415 0098979 351.0863 159.9822 14.47523379985883"}}, "geometry": {"type": "Point", "coordinates": [-111.6863151508057, 25.38468680977939]}}, {"type": "Feature", "properties": {"norad_id": 31369, "name": "FENGYUN 1C DEB", "group": "fengyun-1c-debris", "lat": 31.36410934604327, "lon": -26.465873279580137, "alt_km": 847.8134072071934, "timestamp": "2025-12-23T20:42:37.358048+00:00", "meta": {"OBJECT_NAME": "FENGYUN 1C DEB", "OBJECT_ID": "1999-025BRZ", "EPOCH": "2025-12-22T18:05:34.153728", "MEAN_MOTION": 14.19422636, "ECCENTRICITY": 0.00542592, "INCLINATION": 98.6198, "RA_OF_ASC_NODE": 337.76, "ARG_OF_PERICENTER": 270.0056, "MEAN_ANOMALY": 217.3066, "EPHEMERIS_TYPE": 0, "CLASSIFICATION_TYPE": "U", "NORAD_CAT_ID": 31369, "ELEMENT_SET_NO": 999, "REV_AT_EPOCH": 64469, "BSTAR": 0.00024964358, "MEAN_MOTION_DOT": 4.9e-06, "MEAN_MOTION_DDOT": 0}, "tle": {"line1": "1 31369U 99025BRZ 25356.75386752  .00000490  00000+0  24964-3 0  9991", "line2": "2 31369  98.6198 337.7600 0054259 270.0056 217.3066 14.19422636644698"}}, "geometry": {"type": "Point", "coordinates": [-26.465873279580137, 31.36410934604327]}}, {"type": "Feature", "properties": {"norad_id": 31370, "name": "FENGYUN 1C DEB", "group": "fengyun-1c-debris", "lat": 41.86691663101057, "lon": -174.49642779600322, "alt_km": 871.7632920459291, "timestamp": "2025-12-23T20:42:37.358059+00:00", "meta": {"OBJECT_NAME": "FENGYUN 1C DEB", "OBJECT_ID": "1999-025BSA", "EPOCH": "2025-12-18T10:35:51.641952", "MEAN_MOTION": 14.09714607, "ECCENTRICITY": 0.00331839, "INCLINATION": 98.7533, "RA_OF_ASC_NODE": 352.2955, "ARG_OF_PERICENTER": 281.205, "MEAN_ANOMALY": 78.5392, "EPHEMERIS_TYPE": 0, "CLASSIFICATION_TYPE": "U", "NORAD_CAT_ID": 31370, "ELEMENT_SET_NO": 999, "REV_AT_EPOCH": 96374, "BSTAR": 0.00035450044, "MEAN_MOTION_DOT": 5.82e-06, "MEAN_MOTION_DDOT": 0}, "tle": {"line1": "1 31370U 99025BSA 25352.44156993  .00000582  00000+0  35450-3 0  9991", "line2": "2 31370  98.7533 352.2955 0033183 281.2050  78.5392 14.09714607963740"}}, "geometry": {"type": "Point", "coordinates": [-174.49642779600322, 41.86691663101057]}}, {"type": "Feature", "properties": {"norad_id": 31371, "name": "FENGYUN 1C DEB", "group": "fengyun-1c-debris", "lat": -12.02498744292467, "lon": -151.41249947654939, "alt_km": 830.2109044477984, "timestamp": "2025-12-23T20:42:37.358069+00:00", "meta": {"OBJECT_NAME": "FENGYUN 1C DEB", "OBJECT_ID": "1999-025BSB", "EPOCH": "2025-12-22T19:51:31.137408", "MEAN_MOTION": 14.04529651, "ECCENTRICITY": 0.00783572, "INCLINATION": 98.7647, "RA_OF_ASC_NODE": 29.4711, "ARG_OF_PERICENTER": 218.3757, "MEAN_ANOMALY": 141.1821, "EPHEMERIS_TYPE": 0, "CLASSIFICATION_TYPE": "U", "NORAD_CAT_ID": 31371, "ELEMENT_SET_NO": 999, "REV_AT_EPOCH": 95888, "BSTAR": 0.00067430107, "MEAN_MOTION_DOT": 1.063e-05, "MEAN_MOTION_DDOT": 0}, "tle": {"line1": "1 31371U 99025BSB 25356.82744372  .00001063  00000+0  67430-3 0  9990", "line2": "2 31371  98.7647  29.4711 0078357 218.3757 141.1821 14.04529651958888"}}, "geometry": {"type": "Point", "coordinates": [-151.41249947654939, -12.02498744292467]}}, {"type": "Feature", "properties": {"norad_id": 31372, "name": "FENGYUN 1C DEB", "group": "fengyun-1c-debris", "lat": 78.77630838425166, "lon": -133.95469128296602, "alt_km": 780.7803491184131, "timestamp": "2025-12-23T20:42:37.358080+00:00", "meta": {"OBJECT_NAME": "FENGYUN 1C DEB", "OBJECT_ID": "1999-025BSC", "EPOCH": "2025-12-22T22:22:54.506784", "MEAN_MOTION": 14.26607096, "ECCENTRICITY": 0.0033917, "INCLINATION": 99.3749, "RA_OF_ASC_NODE": 348.6894, "ARG_OF_PERICENTER": 46.4084, "MEAN_ANOMALY": 313.99, "EPHEMERIS_TYPE": 0, "CLASSIFICATION_TYPE": "U", "NORAD_CAT_ID": 31372, "ELEMENT_SET_NO": 999, "REV_AT_EPOCH": 95996, "BSTAR": 0.0016229, "MEAN_MOTION_DOT": 3.895e-05, "MEAN_MOTION_DDOT": 0}, "tle": {"line1": "1 31372U 99025BSC 25356.93257531  .00003895  00000+0  16229-2 0  9993", "line2": "2 31372  99.3749 348.6894 0033917  46.4084 313.9900 14.26607096959964"}}, "geometry": {"type": "Point", "coordinates": [-133.95469128296602, 78.77630838425166]}}, {"type": "Feature", "properties": {"norad_id": 31376, "name": "FENGYUN 1C DEB", "group": "fengyun-1c-debris", "lat": -32.41488017707125, "lon": -79.49965458266836, "alt_km": 694.8836696961134, "timestamp": "2025-12-23T20:42:37.358090+00:00", "meta": {"OBJECT_NAME": "FENGYUN 1C DEB", "OBJECT_ID": "1999-025BSG", "EPOCH": "2025-12-22T12:00:27.959040", "MEAN_MOTION": 14.61892861, "ECCENTRICITY": 0.00484619, "INCLINATION": 98.8344, "RA_OF_ASC_NODE": 273.3774, "ARG_OF_PERICENTER": 238.0862, "MEAN_ANOMALY": 121.5619, "EPHEMERIS_TYPE": 0, "CLASSIFICATION_TYPE": "U", "NORAD_CAT_ID": 31376, "ELEMENT_SET_NO": 999, "REV_AT_EPOCH": 98285, "BSTAR": 0.0023150769, "MEAN_MOTION_DOT": 0.00011737, "MEAN_MOTION_DDOT": 0}, "tle": {"line1": "1 31376U 99025BSG 25356.50032360  .00011737  00000+0  23151-2 0  9997", "line2": "2 31376  98.8344 273.3774 0048461 238.0862 121.5619 14.61892861982856"}}, "geometry": {"type": "Point", "coordinates": [-79.49965458266836, -32.41488017707125]}}]}